{"type":"FeatureCollection","features":[{"type":"Feature","properties":{"name":"Approximate Russian-occupied zone (early 2026), LOW CONFIDENCE","note":"Hand-authored. Only used to split Donetsk, Zaporizhzhia and Kherson oblasts. Western edge follows the lower Dnipro (Natural Earth 10m river centerline) and Dnipro-Buh estuary; the land segment is an approximate line of contact and must be fact-checked."},"geometry":{"type":"Polygon","coordinates":[[[31.4,46.2],
[31.45,46.555],
[31.8,46.53],
[32.1,46.5],
[32.25,46.505],
[32.35,46.53],
[32.45,46.55],
[32.55,46.585],
[32.62,46.615],
[32.646,46.65],
[32.686,46.665],
[32.74,46.679],
[32.795,46.685],
[33,46.758],
[33.03,46.751],
[33.057,46.749],
[33.08,46.754],
[33.157,46.786],
[33.187,46.791],
[33.213,46.787],
[33.262,46.768],
[33.317,46.765],
[33.371,46.783],
[33.407,46.808],
[33.438,46.833],
[33.481,46.839],
[33.54,46.831],
[33.603,46.853],
[33.631,46.898],
[33.653,46.948],
[33.676,46.994],
[33.706,47.028],
[33.8,47.103],
[33.866,47.172],
[33.943,47.229],
[33.985,47.288],
[34.003,47.347],
[34.004,47.4],
[34.008,47.463],
[34.058,47.481],
[34.157,47.474],
[34.319,47.505],
[34.446,47.523],
[34.584,47.567],
[34.644,47.564],
[34.73,47.539],
[34.832,47.526],
[34.898,47.523],
[34.997,47.503],
[35.063,47.505],
[35.28,47.48],
[35.55,47.5],
[35.78,47.52],
[36.05,47.6],
[36.26,47.66],
[36.5,47.76],
[36.75,47.85],
[36.85,47.92],
[36.92,48.05],
[36.98,48.17],
[37.05,48.28],
[37.25,48.38],
[37.5,48.46],
[37.72,48.52],
[37.85,48.59],
[37.98,48.72],
[38.1,48.87],
[38.2,49.05],
[38.45,49.3],
[39.6,50.6],
[41.5,50.2],
[41.5,46],
[37,44.6],
[33,44.2],
[31,45.5],
[31.4,46.2]]]}}]}
